STARLINK-32364          
1 61622U 24191B   26068.26983961 -.00001087  00000+0 -30011-4 0  9996
2 61622  42.9942 156.7492 0000148 182.0242 178.0609 15.27577082 77475
REAL                    
1 64875U 25154G   26068.72233414  .00022901  00000+0  82904-3 0  9994
2 64875  97.4133 137.2581 0001853 118.5876 241.5550 15.28408058 34830
